[{"OBJECT_NAME":"STARLINK-5024","OBJECT_ID":"2022-119R","EPOCH":"2025-11-21T04:00:01.998720","MEAN_MOTION":15.67384239,"ECCENTRICITY":0.0005485,"INCLINATION":53.2156,"RA_OF_ASC_NODE":64.2595,"ARG_OF_PERICENTER":338.9221,"MEAN_ANOMALY":67.459,"EPHEMERIS_TYPE":0,"CLASSIFICATION_TYPE":"U","NORAD_CAT_ID":53901,"ELEMENT_SET_NO":999,"REV_AT_EPOCH":594,"BSTAR":0.0017668,"MEAN_MOTION_DOT":0.00198829,"MEAN_MOTION_DDOT":0},{"OBJECT_NAME":"STARLINK-5021","OBJECT_ID":"2022-119S","EPOCH":"2025-11-20T11:41:23.706816","MEAN_MOTION":15.08842068,"ECCENTRICITY":8.562e-5,"INCLINATION":53.2196,"RA_OF_ASC_NODE":44.1044,"ARG_OF_PERICENTER":88.5098,"MEAN_ANOMALY":271.5993,"EPHEMERIS_TYPE":0,"CLASSIFICATION_TYPE":"U","NORAD_CAT_ID":53902,"ELEMENT_SET_NO":999,"REV_AT_EPOCH":17590,"BSTAR":6.7138484e-5,"MEAN_MOTION_DOT":7.81e-6,"MEAN_MOTION_DDOT":0},{"OBJECT_NAME":"STARLINK-5022","OBJECT_ID":"2022-119T","EPOCH":"2025-11-20T18:24:11.367072","MEAN_MOTION":15.08841694,"ECCENTRICITY":0.00012585,"INCLINATION":53.2155,"RA_OF_ASC_NODE":92.8991,"ARG_OF_PERICENTER":77.151,"MEAN_ANOMALY":282.9622,"EPHEMERIS_TYPE":0,"CLASSIFICATION_TYPE":"U","NORAD_CAT_ID":53903,"ELEMENT_SET_NO":999,"REV_AT_EPOCH":17524,"BSTAR":1.4153372e-5,"MEAN_MOTION_DOT":-6.3e-7,"MEAN_MOTION_DDOT":0},{"OBJECT_NAME":"STARLINK-4787","OBJECT_ID":"2022-119U","EPOCH":"2025-11-20T17:56:17.249568","MEAN_MOTION":15.08841989,"ECCENTRICITY":0.00012067,"INCLINATION":53.2166,"RA_OF_ASC_NODE":92.7821,"ARG_OF_PERICENTER":76.2304,"MEAN_ANOMALY":283.8822,"EPHEMERIS_TYPE":0,"CLASSIFICATION_TYPE":"U","NORAD_CAT_ID":53904,"ELEMENT_SET_NO":999,"REV_AT_EPOCH":17524,"BSTAR":2.6679404e-5,"MEAN_MOTION_DOT":1.37e-6,"MEAN_MOTION_DDOT":0},{"OBJECT_NAME":"STARLINK-5003","OBJECT_ID":"2022-119V","EPOCH":"2025-11-20T17:41:49.066944","MEAN_MOTION":15.08837344,"ECCENTRICITY":0.00012744,"INCLINATION":53.2131,"RA_OF_ASC_NODE":83.4462,"ARG_OF_PERICENTER":69.5326,"MEAN_ANOMALY":290.5803,"EPHEMERIS_TYPE":0,"CLASSIFICATION_TYPE":"U","NORAD_CAT_ID":53905,"ELEMENT_SET_NO":999,"REV_AT_EPOCH":17537,"BSTAR":3.7101969e-5,"MEAN_MOTION_DOT":3.03e-6,"MEAN_MOTION_DDOT":0},{"OBJECT_NAME":"STARLINK-5054","OBJECT_ID":"2022-119W","EPOCH":"2025-11-20T14:57:25.845984","MEAN_MOTION":15.08849437,"ECCENTRICITY":9.63e-5,"INCLINATION":53.2171,"RA_OF_ASC_NODE":83.4536,"ARG_OF_PERICENTER":67.3426,"MEAN_ANOMALY":292.7668,"EPHEMERIS_TYPE":0,"CLASSIFICATION_TYPE":"U","NORAD_CAT_ID":53906,"ELEMENT_SET_NO":999,"REV_AT_EPOCH":17536,"BSTAR":0.00016378138,"MEAN_MOTION_DOT":2.32e-5,"MEAN_MOTION_DDOT":0},{"OBJECT_NAME":"STARLINK-5057","OBJECT_ID":"2022-119Y","EPOCH":"2025-11-20T17:31:12.295488","MEAN_MOTION":15.08841651,"ECCENTRICITY":0.00011312,"INCLINATION":53.2154,"RA_OF_ASC_NODE":83.4008,"ARG_OF_PERICENTER":89.043,"MEAN_ANOMALY":271.0691,"EPHEMERIS_TYPE":0,"CLASSIFICATION_TYPE":"U","NORAD_CAT_ID":53908,"ELEMENT_SET_NO":999,"REV_AT_EPOCH":17537,"BSTAR":2.0197983e-5,"MEAN_MOTION_DOT":3.4e-7,"MEAN_MOTION_DDOT":0},{"OBJECT_NAME":"STARLINK-4796","OBJECT_ID":"2022-119Z","EPOCH":"2025-11-20T17:47:07.450944","MEAN_MOTION":15.08858543,"ECCENTRICITY":0.0001499,"INCLINATION":53.2152,"RA_OF_ASC_NODE":83.4682,"ARG_OF_PERICENTER":105.6971,"MEAN_ANOMALY":254.4186,"EPHEMERIS_TYPE":0,"CLASSIFICATION_TYPE":"U","NORAD_CAT_ID":53909,"ELEMENT_SET_NO":999,"REV_AT_EPOCH":17537,"BSTAR":0.00013466281,"MEAN_MOTION_DOT":1.857e-5,"MEAN_MOTION_DDOT":0},{"OBJECT_NAME":"STARLINK-5056","OBJECT_ID":"2022-119AA","EPOCH":"2025-11-21T02:40:20.155296","MEAN_MOTION":15.85436839,"ECCENTRICITY":0.0004653,"INCLINATION":53.2133,"RA_OF_ASC_NODE":351.026,"ARG_OF_PERICENTER":52.5917,"MEAN_ANOMALY":307.5531,"EPHEMERIS_TYPE":0,"CLASSIFICATION_TYPE":"U","NORAD_CAT_ID":53910,"ELEMENT_SET_NO":999,"REV_AT_EPOCH":17671,"BSTAR":0.0006654,"MEAN_MOTION_DOT":0.00165329,"MEAN_MOTION_DDOT":0},{"OBJECT_NAME":"STARLINK-5048","OBJECT_ID":"2022-119AB","EPOCH":"2025-11-20T17:36:30.407328","MEAN_MOTION":15.08839454,"ECCENTRICITY":0.00013597,"INCLINATION":53.2164,"RA_OF_ASC_NODE":83.4239,"ARG_OF_PERICENTER":83.401,"MEAN_ANOMALY":276.7136,"EPHEMERIS_TYPE":0,"CLASSIFICATION_TYPE":"U","NORAD_CAT_ID":53911,"ELEMENT_SET_NO":999,"REV_AT_EPOCH":17537,"BSTAR":9.2736177e-5,"MEAN_MOTION_DOT":1.188e-5,"MEAN_MOTION_DDOT":0},{"OBJECT_NAME":"STARLINK-5059","OBJECT_ID":"2022-119AC","EPOCH":"2025-11-20T17:57:36.644256","MEAN_MOTION":15.08841411,"ECCENTRICITY":0.00012491,"INCLINATION":53.2185,"RA_OF_ASC_NODE":82.8143,"ARG_OF_PERICENTER":98.5825,"MEAN_ANOMALY":261.5309,"EPHEMERIS_TYPE":0,"CLASSIFICATION_TYPE":"U","NORAD_CAT_ID":53912,"ELEMENT_SET_NO":999,"REV_AT_EPOCH":17538,"BSTAR":6.9363469e-5,"MEAN_MOTION_DOT":8.16e-6,"MEAN_MOTION_DDOT":0},{"OBJECT_NAME":"STARLINK-5053","OBJECT_ID":"2022-119AD","EPOCH":"2025-11-20T17:09:59.402304","MEAN_MOTION":15.08837404,"ECCENTRICITY":0.00012194,"INCLINATION":53.2175,"RA_OF_ASC_NODE":83.311,"ARG_OF_PERICENTER":85.3377,"MEAN_ANOMALY":274.7754,"EPHEMERIS_TYPE":0,"CLASSIFICATION_TYPE":"U","NORAD_CAT_ID":53913,"ELEMENT_SET_NO":999,"REV_AT_EPOCH":17537,"BSTAR":4.2951417e-5,"MEAN_MOTION_DOT":3.96e-6,"MEAN_MOTION_DDOT":0},{"OBJECT_NAME":"STARLINK-5040","OBJECT_ID":"2022-119AE","EPOCH":"2025-11-20T17:04:41.054592","MEAN_MOTION":15.08837166,"ECCENTRICITY":0.00012768,"INCLINATION":53.2184,"RA_OF_ASC_NODE":83.2926,"ARG_OF_PERICENTER":87.095,"MEAN_ANOMALY":273.0188,"EPHEMERIS_TYPE":0,"CLASSIFICATION_TYPE":"U","NORAD_CAT_ID":53914,"ELEMENT_SET_NO":999,"REV_AT_EPOCH":17537,"BSTAR":3.548204e-5,"MEAN_MOTION_DOT":2.77e-6,"MEAN_MOTION_DDOT":0},{"OBJECT_NAME":"STARLINK-5017","OBJECT_ID":"2022-119AF","EPOCH":"2025-11-20T17:25:54.336576","MEAN_MOTION":15.08844211,"ECCENTRICITY":0.00012362,"INCLINATION":53.2162,"RA_OF_ASC_NODE":83.3779,"ARG_OF_PERICENTER":85.5852,"MEAN_ANOMALY":274.5282,"EPHEMERIS_TYPE":0,"CLASSIFICATION_TYPE":"U","NORAD_CAT_ID":53915,"ELEMENT_SET_NO":999,"REV_AT_EPOCH":17537,"BSTAR":-3.355361e-6,"MEAN_MOTION_DOT":-3.41e-6,"MEAN_MOTION_DDOT":0},{"OBJECT_NAME":"STARLINK-5051","OBJECT_ID":"2022-119AG","EPOCH":"2025-11-20T16:14:17.248992","MEAN_MOTION":15.08841241,"ECCENTRICITY":0.00012847,"INCLINATION":53.217,"RA_OF_ASC_NODE":63.1527,"ARG_OF_PERICENTER":97.1792,"MEAN_ANOMALY":262.9347,"EPHEMERIS_TYPE":0,"CLASSIFICATION_TYPE":"U","NORAD_CAT_ID":53916,"ELEMENT_SET_NO":999,"REV_AT_EPOCH":17566,"BSTAR":7.4344743e-5,"MEAN_MOTION_DOT":8.96e-6,"MEAN_MOTION_DDOT":0},{"OBJECT_NAME":"STARLINK-5036","OBJECT_ID":"2022-119AH","EPOCH":"2025-11-20T17:15:18.235584","MEAN_MOTION":15.08832261,"ECCENTRICITY":0.0001121,"INCLINATION":53.2196,"RA_OF_ASC_NODE":83.3329,"ARG_OF_PERICENTER":88.5369,"MEAN_ANOMALY":271.5752,"EPHEMERIS_TYPE":0,"CLASSIFICATION_TYPE":"U","NORAD_CAT_ID":53917,"ELEMENT_SET_NO":999,"REV_AT_EPOCH":17537,"BSTAR":5.918967e-5,"MEAN_MOTION_DOT":6.54e-6,"MEAN_MOTION_DDOT":0},{"OBJECT_NAME":"STARLINK-5012","OBJECT_ID":"2022-119AJ","EPOCH":"2025-11-20T16:59:23.630496","MEAN_MOTION":15.08821668,"ECCENTRICITY":9.158e-5,"INCLINATION":53.2182,"RA_OF_ASC_NODE":83.2659,"ARG_OF_PERICENTER":85.2193,"MEAN_ANOMALY":274.8904,"EPHEMERIS_TYPE":0,"CLASSIFICATION_TYPE":"U","NORAD_CAT_ID":53918,"ELEMENT_SET_NO":999,"REV_AT_EPOCH":17537,"BSTAR":0.00012988774,"MEAN_MOTION_DOT":1.779e-5,"MEAN_MOTION_DDOT":0},{"OBJECT_NAME":"STARLINK-5023","OBJECT_ID":"2022-119AK","EPOCH":"2025-11-20T15:18:41.283648","MEAN_MOTION":15.08832702,"ECCENTRICITY":0.000107,"INCLINATION":53.2166,"RA_OF_ASC_NODE":83.5384,"ARG_OF_PERICENTER":89.217,"MEAN_ANOMALY":270.8945,"EPHEMERIS_TYPE":0,"CLASSIFICATION_TYPE":"U","NORAD_CAT_ID":53919,"ELEMENT_SET_NO":999,"REV_AT_EPOCH":17536,"BSTAR":-1.5974414e-5,"MEAN_MOTION_DOT":-5.42e-6,"MEAN_MOTION_DDOT":0},{"OBJECT_NAME":"STARLINK-5025","OBJECT_ID":"2022-119AL","EPOCH":"2025-11-20T14:11:12.915744","MEAN_MOTION":15.08834398,"ECCENTRICITY":0.00013006,"INCLINATION":53.2165,"RA_OF_ASC_NODE":83.951,"ARG_OF_PERICENTER":85.8778,"MEAN_ANOMALY":274.2363,"EPHEMERIS_TYPE":0,"CLASSIFICATION_TYPE":"U","NORAD_CAT_ID":53920,"ELEMENT_SET_NO":999,"REV_AT_EPOCH":17535,"BSTAR":2.9872194e-5,"MEAN_MOTION_DOT":1.87e-6,"MEAN_MOTION_DDOT":0},{"OBJECT_NAME":"STARLINK-5002","OBJECT_ID":"2022-119AN","EPOCH":"2025-11-20T15:02:47.119200","MEAN_MOTION":15.08827718,"ECCENTRICITY":0.0001041,"INCLINATION":53.2177,"RA_OF_ASC_NODE":83.4689,"ARG_OF_PERICENTER":70.4183,"MEAN_ANOMALY":289.6922,"EPHEMERIS_TYPE":0,"CLASSIFICATION_TYPE":"U","NORAD_CAT_ID":53922,"ELEMENT_SET_NO":999,"REV_AT_EPOCH":17536,"BSTAR":3.7470042e-5,"MEAN_MOTION_DOT":3.08e-6,"MEAN_MOTION_DDOT":0},{"OBJECT_NAME":"STARLINK-5004","OBJECT_ID":"2022-119AP","EPOCH":"2025-11-20T12:02:36.166272","MEAN_MOTION":15.08838431,"ECCENTRICITY":8.895e-5,"INCLINATION":53.218,"RA_OF_ASC_NODE":84.1097,"ARG_OF_PERICENTER":87.7042,"MEAN_ANOMALY":272.4052,"EPHEMERIS_TYPE":0,"CLASSIFICATION_TYPE":"U","NORAD_CAT_ID":53923,"ELEMENT_SET_NO":999,"REV_AT_EPOCH":17534,"BSTAR":-3.194222e-5,"MEAN_MOTION_DOT":-7.96e-6,"MEAN_MOTION_DDOT":0},{"OBJECT_NAME":"STARLINK-5001","OBJECT_ID":"2022-119AQ","EPOCH":"2025-11-20T09:00:27.616896","MEAN_MOTION":15.08838666,"ECCENTRICITY":0.00010728,"INCLINATION":53.2177,"RA_OF_ASC_NODE":79.7567,"ARG_OF_PERICENTER":96.4566,"MEAN_ANOMALY":263.6548,"EPHEMERIS_TYPE":0,"CLASSIFICATION_TYPE":"U","NORAD_CAT_ID":53924,"ELEMENT_SET_NO":999,"REV_AT_EPOCH":17539,"BSTAR":0.00013950751,"MEAN_MOTION_DOT":1.933e-5,"MEAN_MOTION_DDOT":0},{"OBJECT_NAME":"STARLINK-5011","OBJECT_ID":"2022-119AR","EPOCH":"2025-11-20T17:52:19.629696","MEAN_MOTION":15.08822528,"ECCENTRICITY":0.00013785,"INCLINATION":53.2164,"RA_OF_ASC_NODE":82.7913,"ARG_OF_PERICENTER":89.6636,"MEAN_ANOMALY":270.4514,"EPHEMERIS_TYPE":0,"CLASSIFICATION_TYPE":"U","NORAD_CAT_ID":53925,"ELEMENT_SET_NO":999,"REV_AT_EPOCH":17538,"BSTAR":0.0003398404,"MEAN_MOTION_DOT":5.122e-5,"MEAN_MOTION_DDOT":0}]
